[{"OBJECT_NAME":"STARLINK-5026","OBJECT_ID":"2023-094AU","EPOCH":"2026-03-23T06:00:00.999648","MEAN_MOTION":15.18507147,"ECCENTRICITY":0.00021529,"INCLINATION":42.9999,"RA_OF_ASC_NODE":302.5205,"ARG_OF_PERICENTER":264.561,"MEAN_ANOMALY":69.3305,"EPHEMERIS_TYPE":0,"CLASSIFICATION_TYPE":"U","NORAD_CAT_ID":57260,"ELEMENT_SET_NO":999,"REV_AT_EPOCH":577,"BSTAR":0.0019872678,"MEAN_MOTION_DOT":0.00041774,"MEAN_MOTION_DDOT":0},{"OBJECT_NAME":"STARLINK-5485","OBJECT_ID":"2023-094AV","EPOCH":"2026-03-23T06:00:00.999648","MEAN_MOTION":15.26750544,"ECCENTRICITY":0.0001579,"INCLINATION":43.0001,"RA_OF_ASC_NODE":313.7865,"ARG_OF_PERICENTER":273.6134,"MEAN_ANOMALY":79.4404,"EPHEMERIS_TYPE":0,"CLASSIFICATION_TYPE":"U","NORAD_CAT_ID":57261,"ELEMENT_SET_NO":999,"REV_AT_EPOCH":577,"BSTAR":-3.8878767e-5,"MEAN_MOTION_DOT":-1.303e-5,"MEAN_MOTION_DDOT":0},{"OBJECT_NAME":"STARLINK-5504","OBJECT_ID":"2023-094AW","EPOCH":"2026-03-23T06:00:00.999648","MEAN_MOTION":15.1959401,"ECCENTRICITY":0.00021358,"INCLINATION":42.9997,"RA_OF_ASC_NODE":302.5698,"ARG_OF_PERICENTER":248.5914,"MEAN_ANOMALY":64.7709,"EPHEMERIS_TYPE":0,"CLASSIFICATION_TYPE":"U","NORAD_CAT_ID":57262,"ELEMENT_SET_NO":999,"REV_AT_EPOCH":572,"BSTAR":0.0017560587,"MEAN_MOTION_DOT":0.00038052,"MEAN_MOTION_DDOT":0},{"OBJECT_NAME":"STARLINK-5509","OBJECT_ID":"2023-094AX","EPOCH":"2026-03-23T06:00:00.999648","MEAN_MOTION":15.26760055,"ECCENTRICITY":0.00015672,"INCLINATION":42.9998,"RA_OF_ASC_NODE":313.9097,"ARG_OF_PERICENTER":263.6871,"MEAN_ANOMALY":36.7343,"EPHEMERIS_TYPE":0,"CLASSIFICATION_TYPE":"U","NORAD_CAT_ID":57263,"ELEMENT_SET_NO":999,"REV_AT_EPOCH":577,"BSTAR":-0.00032906303,"MEAN_MOTION_DOT":-9.081e-5,"MEAN_MOTION_DDOT":0},{"OBJECT_NAME":"STARLINK-5858","OBJECT_ID":"2023-094AY","EPOCH":"2026-03-23T06:00:00.999648","MEAN_MOTION":15.17466285,"ECCENTRICITY":0.00020716,"INCLINATION":42.9995,"RA_OF_ASC_NODE":302.6049,"ARG_OF_PERICENTER":257.9725,"MEAN_ANOMALY":40.016,"EPHEMERIS_TYPE":0,"CLASSIFICATION_TYPE":"U","NORAD_CAT_ID":57264,"ELEMENT_SET_NO":999,"REV_AT_EPOCH":562,"BSTAR":0.0019886001,"MEAN_MOTION_DOT":0.00040555,"MEAN_MOTION_DDOT":0},{"OBJECT_NAME":"STARLINK-30198","OBJECT_ID":"2023-096A","EPOCH":"2026-03-22T15:39:06.104736","MEAN_MOTION":15.20088489,"ECCENTRICITY":0.0001386,"INCLINATION":42.9943,"RA_OF_ASC_NODE":150.4928,"ARG_OF_PERICENTER":285.2711,"MEAN_ANOMALY":74.7985,"EPHEMERIS_TYPE":0,"CLASSIFICATION_TYPE":"U","NORAD_CAT_ID":57290,"ELEMENT_SET_NO":999,"REV_AT_EPOCH":14959,"BSTAR":0.00089982656,"MEAN_MOTION_DOT":0.00019614,"MEAN_MOTION_DDOT":0},{"OBJECT_NAME":"STARLINK-30239","OBJECT_ID":"2023-096B","EPOCH":"2026-03-23T06:00:00.999648","MEAN_MOTION":15.27547283,"ECCENTRICITY":0.00012133,"INCLINATION":42.9992,"RA_OF_ASC_NODE":146.5095,"ARG_OF_PERICENTER":262.2305,"MEAN_ANOMALY":48.4454,"EPHEMERIS_TYPE":0,"CLASSIFICATION_TYPE":"U","NORAD_CAT_ID":57291,"ELEMENT_SET_NO":999,"REV_AT_EPOCH":563,"BSTAR":0.00095417098,"MEAN_MOTION_DOT":0.00026061,"MEAN_MOTION_DDOT":0},{"OBJECT_NAME":"STARLINK-30235","OBJECT_ID":"2023-096E","EPOCH":"2026-03-23T04:00:01.999584","MEAN_MOTION":15.26762429,"ECCENTRICITY":0.00010115,"INCLINATION":42.9993,"RA_OF_ASC_NODE":146.9918,"ARG_OF_PERICENTER":276.5499,"MEAN_ANOMALY":290.4257,"EPHEMERIS_TYPE":0,"CLASSIFICATION_TYPE":"U","NORAD_CAT_ID":57294,"ELEMENT_SET_NO":999,"REV_AT_EPOCH":557,"BSTAR":0.0016589289,"MEAN_MOTION_DOT":0.00044538,"MEAN_MOTION_DDOT":0},{"OBJECT_NAME":"STARLINK-30236","OBJECT_ID":"2023-096L","EPOCH":"2026-03-23T04:00:01.999584","MEAN_MOTION":15.26763974,"ECCENTRICITY":7.684e-5,"INCLINATION":42.9995,"RA_OF_ASC_NODE":147.0836,"ARG_OF_PERICENTER":255.9716,"MEAN_ANOMALY":267.9312,"EPHEMERIS_TYPE":0,"CLASSIFICATION_TYPE":"U","NORAD_CAT_ID":57300,"ELEMENT_SET_NO":999,"REV_AT_EPOCH":567,"BSTAR":0.0011898542,"MEAN_MOTION_DOT":0.00031817,"MEAN_MOTION_DDOT":0},{"OBJECT_NAME":"STARLINK-30201","OBJECT_ID":"2023-096M","EPOCH":"2026-03-22T20:59:19.288320","MEAN_MOTION":15.26745099,"ECCENTRICITY":0.00015336,"INCLINATION":43.0012,"RA_OF_ASC_NODE":148.7255,"ARG_OF_PERICENTER":262.8767,"MEAN_ANOMALY":97.191,"EPHEMERIS_TYPE":0,"CLASSIFICATION_TYPE":"U","NORAD_CAT_ID":57301,"ELEMENT_SET_NO":999,"REV_AT_EPOCH":14873,"BSTAR":7.9275919e-5,"MEAN_MOTION_DOT":1.867e-5,"MEAN_MOTION_DDOT":0},{"OBJECT_NAME":"STARLINK-30233","OBJECT_ID":"2023-096N","EPOCH":"2026-03-23T04:00:01.999584","MEAN_MOTION":15.2490201,"ECCENTRICITY":0.00012644,"INCLINATION":42.9989,"RA_OF_ASC_NODE":147.028,"ARG_OF_PERICENTER":286.8565,"MEAN_ANOMALY":253.7057,"EPHEMERIS_TYPE":0,"CLASSIFICATION_TYPE":"U","NORAD_CAT_ID":57302,"ELEMENT_SET_NO":999,"REV_AT_EPOCH":552,"BSTAR":0.0031613887,"MEAN_MOTION_DOT":0.00080857,"MEAN_MOTION_DDOT":0},{"OBJECT_NAME":"STARLINK-30184","OBJECT_ID":"2023-096W","EPOCH":"2026-03-23T04:16:25.041504","MEAN_MOTION":15.27575945,"ECCENTRICITY":0.00011649,"INCLINATION":42.9989,"RA_OF_ASC_NODE":118.2857,"ARG_OF_PERICENTER":262.4607,"MEAN_ANOMALY":97.6113,"EPHEMERIS_TYPE":0,"CLASSIFICATION_TYPE":"U","NORAD_CAT_ID":57310,"ELEMENT_SET_NO":999,"REV_AT_EPOCH":14911,"BSTAR":0.00046531304,"MEAN_MOTION_DOT":0.00012563,"MEAN_MOTION_DDOT":0},{"OBJECT_NAME":"STARLINK-6290","OBJECT_ID":"2023-099A","EPOCH":"2026-03-23T04:00:01.999584","MEAN_MOTION":15.16314875,"ECCENTRICITY":0.00011691,"INCLINATION":43.0006,"RA_OF_ASC_NODE":175.4673,"ARG_OF_PERICENTER":284.6767,"MEAN_ANOMALY":203.1855,"EPHEMERIS_TYPE":0,"CLASSIFICATION_TYPE":"U","NORAD_CAT_ID":57328,"ELEMENT_SET_NO":999,"REV_AT_EPOCH":581,"BSTAR":0.0049853699,"MEAN_MOTION_DOT":0.00099525,"MEAN_MOTION_DDOT":0},{"OBJECT_NAME":"STARLINK-6138","OBJECT_ID":"2023-099B","EPOCH":"2026-03-23T04:00:01.999584","MEAN_MOTION":15.15166805,"ECCENTRICITY":0.00015451,"INCLINATION":43.0007,"RA_OF_ASC_NODE":175.3957,"ARG_OF_PERICENTER":306.2034,"MEAN_ANOMALY":207.5753,"EPHEMERIS_TYPE":0,"CLASSIFICATION_TYPE":"U","NORAD_CAT_ID":57329,"ELEMENT_SET_NO":999,"REV_AT_EPOCH":576,"BSTAR":0.0034405849,"MEAN_MOTION_DOT":0.00066095,"MEAN_MOTION_DDOT":0},{"OBJECT_NAME":"STARLINK-6212","OBJECT_ID":"2023-099C","EPOCH":"2026-03-23T04:00:01.999584","MEAN_MOTION":15.15073417,"ECCENTRICITY":0.00012697,"INCLINATION":42.9998,"RA_OF_ASC_NODE":175.5215,"ARG_OF_PERICENTER":296.6116,"MEAN_ANOMALY":169.4991,"EPHEMERIS_TYPE":0,"CLASSIFICATION_TYPE":"U","NORAD_CAT_ID":57330,"ELEMENT_SET_NO":999,"REV_AT_EPOCH":581,"BSTAR":0.0052807327,"MEAN_MOTION_DOT":0.00101806,"MEAN_MOTION_DDOT":0},{"OBJECT_NAME":"STARLINK-6234","OBJECT_ID":"2023-099D","EPOCH":"2026-03-23T04:00:01.999584","MEAN_MOTION":15.1519256,"ECCENTRICITY":0.00014474,"INCLINATION":43.0001,"RA_OF_ASC_NODE":175.4416,"ARG_OF_PERICENTER":288.0497,"MEAN_ANOMALY":208.9912,"EPHEMERIS_TYPE":0,"CLASSIFICATION_TYPE":"U","NORAD_CAT_ID":57331,"ELEMENT_SET_NO":999,"REV_AT_EPOCH":581,"BSTAR":0.0035256744,"MEAN_MOTION_DOT":0.00067801,"MEAN_MOTION_DDOT":0},{"OBJECT_NAME":"STARLINK-5831","OBJECT_ID":"2023-099E","EPOCH":"2026-03-23T04:00:01.999584","MEAN_MOTION":15.1512752,"ECCENTRICITY":0.00012534,"INCLINATION":43.0002,"RA_OF_ASC_NODE":175.4952,"ARG_OF_PERICENTER":291.1791,"MEAN_ANOMALY":184.7294,"EPHEMERIS_TYPE":0,"CLASSIFICATION_TYPE":"U","NORAD_CAT_ID":57332,"ELEMENT_SET_NO":999,"REV_AT_EPOCH":571,"BSTAR":0.0051213242,"MEAN_MOTION_DOT":0.00098836,"MEAN_MOTION_DDOT":0},{"OBJECT_NAME":"STARLINK-5585","OBJECT_ID":"2023-099F","EPOCH":"2026-03-23T04:00:01.999584","MEAN_MOTION":15.15789677,"ECCENTRICITY":8.472e-5,"INCLINATION":43.0006,"RA_OF_ASC_NODE":175.4237,"ARG_OF_PERICENTER":291.4498,"MEAN_ANOMALY":214.776,"EPHEMERIS_TYPE":0,"CLASSIFICATION_TYPE":"U","NORAD_CAT_ID":57333,"ELEMENT_SET_NO":999,"REV_AT_EPOCH":576,"BSTAR":0.0050616143,"MEAN_MOTION_DOT":0.00099548,"MEAN_MOTION_DDOT":0},{"OBJECT_NAME":"STARLINK-5589","OBJECT_ID":"2023-099G","EPOCH":"2026-03-23T04:00:01.999584","MEAN_MOTION":15.1291914,"ECCENTRICITY":0.00021155,"INCLINATION":42.9993,"RA_OF_ASC_NODE":175.5612,"ARG_OF_PERICENTER":286.847,"MEAN_ANOMALY":154.5443,"EPHEMERIS_TYPE":0,"CLASSIFICATION_TYPE":"U","NORAD_CAT_ID":57334,"ELEMENT_SET_NO":999,"REV_AT_EPOCH":576,"BSTAR":0.0034626208,"MEAN_MOTION_DOT":0.00062397,"MEAN_MOTION_DDOT":0},{"OBJECT_NAME":"STARLINK-6316","OBJECT_ID":"2023-099H","EPOCH":"2026-03-22T14:53:26.762496","MEAN_MOTION":15.26731497,"ECCENTRICITY":0.00015524,"INCLINATION":43.0012,"RA_OF_ASC_NODE":176.0017,"ARG_OF_PERICENTER":284.9719,"MEAN_ANOMALY":75.096,"EPHEMERIS_TYPE":0,"CLASSIFICATION_TYPE":"U","NORAD_CAT_ID":57335,"ELEMENT_SET_NO":999,"REV_AT_EPOCH":14809,"BSTAR":-0.00013901824,"MEAN_MOTION_DOT":-3.986e-5,"MEAN_MOTION_DDOT":0},{"OBJECT_NAME":"STARLINK-6320","OBJECT_ID":"2023-099J","EPOCH":"2026-03-23T04:00:01.999584","MEAN_MOTION":15.26722724,"ECCENTRICITY":0.00014114,"INCLINATION":42.9995,"RA_OF_ASC_NODE":172.8868,"ARG_OF_PERICENTER":269.7684,"MEAN_ANOMALY":221.1951,"EPHEMERIS_TYPE":0,"CLASSIFICATION_TYPE":"U","NORAD_CAT_ID":57336,"ELEMENT_SET_NO":999,"REV_AT_EPOCH":581,"BSTAR":0.0014201179,"MEAN_MOTION_DOT":0.0003801,"MEAN_MOTION_DDOT":0},{"OBJECT_NAME":"STARLINK-6322","OBJECT_ID":"2023-099K","EPOCH":"2026-03-23T04:00:01.999584","MEAN_MOTION":15.13022767,"ECCENTRICITY":0.00020599,"INCLINATION":42.9994,"RA_OF_ASC_NODE":175.511,"ARG_OF_PERICENTER":282.4665,"MEAN_ANOMALY":179.3445,"EPHEMERIS_TYPE":0,"CLASSIFICATION_TYPE":"U","NORAD_CAT_ID":57337,"ELEMENT_SET_NO":999,"REV_AT_EPOCH":576,"BSTAR":0.0033033622,"MEAN_MOTION_DOT":0.00059667,"MEAN_MOTION_DDOT":0},{"OBJECT_NAME":"STARLINK-6374","OBJECT_ID":"2023-099L","EPOCH":"2026-03-23T04:00:01.999584","MEAN_MOTION":15.13009277,"ECCENTRICITY":0.00010786,"INCLINATION":43.0005,"RA_OF_ASC_NODE":175.4389,"ARG_OF_PERICENTER":298.0262,"MEAN_ANOMALY":198.1716,"EPHEMERIS_TYPE":0,"CLASSIFICATION_TYPE":"U","NORAD_CAT_ID":57338,"ELEMENT_SET_NO":999,"REV_AT_EPOCH":581,"BSTAR":0.0038446277,"MEAN_MOTION_DOT":0.00069549,"MEAN_MOTION_DDOT":0}]
